LEMUR-2-REMY-COLTON
1 43884U 18111J   24002.74764035  .00014080  00000-0  82320-3 0  9994
2 43884  97.6373 275.4555 0002415 109.1421 251.0071 15.11985539272641
